NORAD_CAT_ID,OBJECT_NAME,OBJECT_TYPE,EPOCH,MEAN_MOTION,ECCENTRICITY,INCLINATION,RA_OF_ASC_NODE,ARG_OF_PERICENTER,MEAN_ANOMALY,BSTAR,MEAN_MOTION_DOT,MEAN_MOTION_DDOT,TLE_LINE0,TLE_LINE1,TLE_LINE2,SEMIMAJOR_AXIS,PERIOD,APOGEE,PERIGEE,DECAYED
55772.0,STARLINK-5835,PAYLOAD,2023-05-28 18:27:29,15.69920277,0.0003185,69.9977,273.3673,266.3717,93.7114,2.4227e-06,7.9e-07,0.0,0 STARLINK-5835,1 55772U 23028AH  23148.76909250  .00000079  00000-0  24227-5 0  9995,2 55772  69.9977 273.3673 0003185 266.3717  93.7114 15.69920277 14171,6737.262,91.724,361.273,356.981,0.0
55772.0,STARLINK-5835,PAYLOAD,2023-05-29 09:45:01,15.69918536,0.0003522,69.9981,271.5773,267.5829,92.4963,-1.31e-05,-1.787e-05,0.0,0 STARLINK-5835,1 55772U 23028AH  23149.40626603 -.00001787  00000-0 -13100-4 0  9991,2 55772  69.9981 271.5773 0003522 267.5829  92.4963 15.69918536 14273,6737.267,91.725,361.505,356.759,0.0
55772.0,STARLINK-5835,PAYLOAD,2023-05-29 11:16:46,15.69918729,0.0003554,69.9981,271.3986,270.4621,89.6167,-1.5115e-05,-2.03e-05,0.0,0 STARLINK-5835,1 55772U 23028AH  23149.46998297 -.00002030  00000-0 -15115-4 0  9998,2 55772  69.9981 271.3986 0003554 270.4621  89.6167 15.69918729 14284,6737.267,91.724,361.526,356.737,0.0
55772.0,STARLINK-5835,PAYLOAD,2023-05-29 17:23:46,15.69926918,0.0003267,69.9982,270.6829,264.1135,95.9688,-5.9657e-06,-9.3e-06,0.0,0 STARLINK-5835,1 55772U 23028AH  23149.72484285 -.00000930  00000-0 -59657-5 0  9991,2 55772  69.9982 270.6829 0003267 264.1135  95.9688 15.69926918 14326,6737.243,91.724,361.309,356.907,0.0
55772.0,STARLINK-5835,PAYLOAD,2023-05-30 01:02:31,15.69936953,0.0003486,69.9978,269.7891,264.9522,95.1276,8.8231e-06,8.49e-06,0.0,0 STARLINK-5835,1 55772U 23028AH  23150.04341620  .00000849  00000-0  88231-5 0  9990,2 55772  69.9978 269.7891 0003486 264.9522  95.1276 15.69936953 14370,6737.214,91.723,361.428,356.731,0.0
55772.0,STARLINK-5835,PAYLOAD,2023-05-30 08:41:17,15.69931693,0.0002986,69.9997,268.897,249.7458,110.3417,5.3374e-06,4.29e-06,0.0,0 STARLINK-5835,1 55772U 23028AH  23150.36200752  .00000429  00000-0  53374-5 0  9999,2 55772  69.9997 268.8970 0002986 249.7458 110.3417 15.69931693 14421,6737.229,91.724,361.106,357.083,0.0
55772.0,STARLINK-5835,PAYLOAD,2023-05-30 10:13:02,15.69928288,0.0002937,70.0016,268.7169,253.3252,106.7622,8.0269e-06,7.53e-06,0.0,0 STARLINK-5835,1 55772U 23028AH  23150.42572512  .00000753  00000-0  80269-5 0  9995,2 55772  70.0016 268.7169 0002937 253.3252 106.7622 15.69928288 14438,6737.239,91.724,361.083,357.125,0.0
55772.0,STARLINK-5835,PAYLOAD,2023-05-30 16:20:02,15.69931267,0.000327,70.0013,268.0013,254.5442,105.5392,9.9493e-06,9.84e-06,0.0,0 STARLINK-5835,1 55772U 23028AH  23150.68058989  .00000984  00000-0  99493-5 0  9995,2 55772  70.0013 268.0013 0003270 254.5442 105.5392 15.69931267 14477,6737.231,91.724,361.299,356.893,0.0
55772.0,STARLINK-5835,PAYLOAD,2023-05-31 01:30:34,15.69919248,0.0002753,70.0008,266.9211,267.8007,92.2874,2.0803e-05,2.289e-05,0.0,0 STARLINK-5835,1 55772U 23028AH  23151.06289739  .00002289  00000-0  20803-4 0  9995,2 55772  70.0008 266.9211 0002753 267.8007  92.2874 15.69919248 14536,6737.265,91.724,360.985,357.275,0.0
55772.0,STARLINK-5835,PAYLOAD,2023-05-31 10:41:04,15.69921586,0.0002864,69.999,265.8473,263.7191,96.3679,2.1981e-05,2.431e-05,0.0,0 STARLINK-5835,1 55772U 23028AH  23151.44519520  .00002431  00000-0  21981-4 0  9998,2 55772  69.9990 265.8473 0002864 263.7191  96.3679 15.69921586 14595,6737.258,91.724,361.053,357.194,0.0
55772.0,STARLINK-5835,PAYLOAD,2023-05-31 16:48:05,15.69923627,0.0003051,69.999,265.131,268.7685,91.3161,2.3486e-05,2.612e-05,0.0,0 STARLINK-5835,1 55772U 23028AH  23151.70006037  .00002612  00000-0  23486-4 0  9994,2 55772  69.9990 265.1310 0003051 268.7685  91.3161 15.69923627 14634,6737.253,91.724,361.173,357.062,0.0
55772.0,STARLINK-5835,PAYLOAD,2023-06-01 00:26:51,15.69915263,0.0002596,70.0,264.2345,266.4687,93.6212,-1.2605e-05,-1.727e-05,0.0,0 STARLINK-5835,1 55772U 23028AH  23152.01865676 -.00001727  00000-0 -12605-4 0  9990,2 55772  70.0000 264.2345 0002596 266.4687  93.6212 15.69915263 14681,6737.276,91.725,360.89,357.392,0.0
55772.0,STARLINK-5835,PAYLOAD,2023-06-01 11:09:06,15.69924546,0.0003337,69.9996,262.9784,274.3631,85.7183,1.3123e-05,1.365e-05,0.0,0 STARLINK-5835,1 55772U 23028AH  23152.46466230  .00001365  00000-0  13123-4 0  9994,2 55772  69.9996 262.9784 0003337 274.3631  85.7183 15.69924546 14756,6737.25,91.724,361.363,356.867,0.0
55772.0,STARLINK-5835,PAYLOAD,2023-06-02 10:05:23,15.69920355,0.000328,69.9999,260.2913,264.7989,95.2833,-1.4366e-06,-3.85e-06,0.0,0 STARLINK-5835,1 55772U 23028AH  23153.42041500 -.00000385  00000-0 -14366-5 0  9994,2 55772  69.9999 260.2913 0003280 264.7989  95.2833 15.69920355 14909,6737.262,91.724,361.337,356.917,0.0
55772.0,STARLINK-5835,PAYLOAD,2023-06-02 14:40:39,15.6992311,0.0003324,70.0,259.7538,265.058,95.0236,3.3735e-06,1.93e-06,0.0,0 STARLINK-5835,1 55772U 23028AH  23153.61156448  .00000193  00000-0  33735-5 0  9999,2 55772  70.0000 259.7538 0003324 265.0580  95.0236 15.69923110 14931,6737.254,91.724,361.358,356.88,0.0
55772.0,STARLINK-5835,PAYLOAD,2023-06-03 10:33:25,15.69928788,0.0003148,70.0009,257.4266,271.1614,88.9221,1.8405e-05,2.001e-05,0.0,0 STARLINK-5835,1 55772U 23028AH  23154.43988057  .00002001  00000-0  18405-4 0  9995,2 55772  70.0009 257.4266 0003148 271.1614  88.9221 15.69928788 15069,6737.238,91.724,361.224,356.982,0.0
55772.0,STARLINK-5835,PAYLOAD,2023-06-03 16:40:26,15.69924499,0.000323,70.0005,256.71,271.8254,88.2572,1.1697e-05,1.194e-05,0.0,0 STARLINK-5835,1 55772U 23028AH  23154.69474960  .00001194  00000-0  11697-4 0  9994,2 55772  70.0005 256.7100 0003230 271.8254  88.2572 15.69924499 15105,6737.25,91.724,361.291,356.939,0.0
55772.0,STARLINK-5835,PAYLOAD,2023-06-04 00:19:13,15.69894322,0.0002897,70.001,255.8148,285.5669,74.5206,-2.609e-05,-3.344e-05,0.0,0 STARLINK-5835,1 55772U 23028AH  23155.01335413 -.00003344  00000-0 -26090-4 0  9994,2 55772  70.0010 255.8148 0002897 285.5669  74.5206 15.69894322 15151,6737.336,91.726,361.153,357.25,0.0
55772.0,STARLINK-5835,PAYLOAD,2023-06-04 09:30:05,15.69390066,0.0003701,69.9999,254.7416,258.5182,101.5598,-0.00092978,-0.00108183,0.0,0 STARLINK-5835,1 55772U 23028AH  23155.39589806 -.00108183  00000-0 -92978-3 0  9996,2 55772  69.9999 254.7416 0003701 258.5182 101.5598 15.69390066 15213,6738.779,91.755,363.138,358.15,0.0
55772.0,STARLINK-5835,PAYLOAD,2023-06-04 14:05:36,15.6922859,0.000558,69.9994,254.2033,329.9252,30.1622,-0.0011918,-0.00137301,0.0,0 STARLINK-5835,1 55772U 23028AH  23155.58722828 -.00137301  00000-0 -11918-2 0  9998,2 55772  69.9994 254.2033 0005580 329.9252  30.1622 15.69228590 15246,6739.242,91.765,364.867,357.346,0.0
55772.0,STARLINK-5835,PAYLOAD,2023-06-04 22:00:00,15.67962159,0.000358,70.0007,253.2787,274.3144,146.043,-0.0095619,-0.00962718,0.0,0 STARLINK-5835,1 55772U 23028AH  23155.91667824 -.00962718  00000-0 -95619-2 0  9997,2 55772  70.0007 253.2787 0003580 274.3144 146.0430 15.67962159 15293,6742.87,91.839,367.149,362.321,0.0
55772.0,STARLINK-5835,PAYLOAD,2023-06-05 06:00:00,15.67308803,0.000338,70.0011,252.3452,268.9546,231.9533,-0.0095731,-0.00940511,0.0,0 STARLINK-5835,1 55772U 23028AH  23156.25001157 -.00940511  00000-0 -95731-2 0  9998,2 55772  70.0011 252.3452 0003380 268.9546 231.9533 15.67308803 15344,6744.744,91.877,368.889,364.329,0.0
55772.0,STARLINK-5835,PAYLOAD,2023-06-05 14:00:01,15.66595763,0.0003438,70.0007,251.4123,274.2,306.5723,-0.0088639,-0.00841617,0.0,0 STARLINK-5835,1 55772U 23028AH  23156.58335648 -.00841617  00000-0 -88639-2 0  9995,2 55772  70.0007 251.4123 0003438 274.2000 306.5723 15.66595763  1306,6746.79,91.919,370.975,366.336,0.0
55772.0,STARLINK-5835,PAYLOAD,2023-06-06 00:00:00,15.65783632,0.0003473,70.0003,250.2471,272.4082,136.9179,-0.0092882,-0.00852324,0.0,0 STARLINK-5835,1 55772U 23028AH  23157.00001157 -.00852324  00000-0 -92882-2 0  9990,2 55772  70.0003 250.2471 0003473 272.4082 136.9179 15.65783632  1307,6749.123,91.967,373.332,368.644,0.0
55772.0,STARLINK-5835,PAYLOAD,2023-06-06 14:00:01,15.64651001,0.0003305,70.0001,248.6188,276.3098,179.0221,-0.0097752,-0.00869203,0.0,0 STARLINK-5835,1 55772U 23028AH  23157.58334491 -.00869203  00000-0 -97752-2 0  9998,2 55772  70.0001 248.6188 0003305 276.3098 179.0221 15.64651001 15556,6752.38,92.033,376.476,372.013,0.0
55772.0,STARLINK-5835,PAYLOAD,2023-06-06 20:00:01,15.64212169,0.0003338,69.9998,247.9216,274.6858,148.189,-0.011069,-0.00958278,0.0,0 STARLINK-5835,1 55772U 23028AH  23157.83334491 -.00958278  00000-0 -11069-1 0  9993,2 55772  69.9998 247.9216 0003338 274.6858 148.1890 15.64212169  1308,6753.643,92.059,377.762,373.253,0.0
55772.0,STARLINK-5835,PAYLOAD,2023-06-07 06:00:00,15.63402414,0.0003305,70.0001,246.7613,264.3959,343.424,-0.011345,-0.00951823,0.0,0 STARLINK-5835,1 55772U 23028AH  23158.25001157 -.00951823  00000-0 -11345-1 0  9996,2 55772  70.0001 246.7613 0003305 264.3959 343.4240 15.63402414 15651,6755.974,92.107,380.072,375.606,0.0
55772.0,STARLINK-5835,PAYLOAD,2023-06-07 14:00:01,15.62698243,0.0003374,69.9997,245.8337,272.2008,50.7202,-0.010669,-0.00877506,0.0,0 STARLINK-5835,1 55772U 23028AH  23158.58334491 -.00877506  00000-0 -10669-1 0  9995,2 55772  69.9997 245.8337 0003374 272.2008  50.7202 15.62698243  1303,6758.004,92.148,382.149,377.589,0.0
55772.0,STARLINK-5835,PAYLOAD,2023-06-07 22:00:00,15.6205838,0.0003344,69.9993,244.9069,271.4139,125.8043,-0.011346,-0.00907285,0.0,0 STARLINK-5835,1 55772U 23028AH  23158.91667824 -.00907285  00000-0 -11346-1 0  9992,2 55772  69.9993 244.9069 0003344 271.4139 125.8043 15.62058380  1303,6759.849,92.186,383.975,379.454,0.0
55772.0,STARLINK-5835,PAYLOAD,2023-06-08 06:00:00,15.61440223,0.0003299,69.9995,243.9811,268.396,202.3234,-0.012147,-0.00944519,0.0,0 STARLINK-5835,1 55772U 23028AH  23159.25001157 -.00944519  00000-0 -12147-1 0  9992,2 55772  69.9995 243.9811 0003299 268.3960 202.3234 15.61440223 15819,6761.633,92.223,385.729,381.267,0.0
